ONEWEB-0171             
1 48070U 21025AE  25362.45664468 -.00000027  00000+0 -10883-3 0  9993
2 48070  87.8975 354.1694 0001686  83.4627 276.6694 13.13468639231200
ONEWEB-0172             
1 48071U 21025AF  25362.43633091  .00000360  00000+0  95004-3 0  9996
2 48071  87.8988 354.1577 0001614  83.9753 276.1560 13.13468536232092
ONEWEB-0174             
1 48072U 21025AG  25362.49389012  .00000096  00000+0  22687-3 0  9997
2 48072  87.8977 354.1491 0001718  92.7101 267.4224 13.13470135231420
ONEWEB-0175             
1 48073U 21025AH  25362.44817867  .00000224  00000+0  57762-3 0  9992
2 48073  87.8985 354.1285 0001717  76.4440 283.6881 13.13468042231079
ONEWEB-0177             
1 48074U 21025AJ  25362.38385376 -.00000084  00000+0 -26440-3 0  9996
2 48074  87.8988 354.1608 0001610  92.5821 267.5492 13.13468347231253
ONEWEB-0178             
1 48075U 21025AK  25362.40260931 -.00000157  00000+0 -46491-3 0  9998
2 48075  87.8976 354.1967 0001528  81.4334 278.6968 13.13468822231308
ONEWEB-0108             
1 48076U 21025AL  25362.43803442  .00000360  00000+0  95159-3 0  9991
2 48076  87.8985 354.1398 0001956  90.6863 269.4491 13.13469311231236
ONEWEB-0169             
1 48077U 21025AM  25362.47017392 -.00000184  00000+0 -53990-3 0  9990
2 48077  87.8980 354.1533 0001930  91.5572 268.5778 13.13467940229895
